      2.10          N: GNSS NAV DATA                        RINEX VERSION / TYPE
fic2rin                                 11/14/2021 00:18:06 PGM / RUN BY / DATE
                                                            END OF HEADER
12 21 11 13  1 59 44.0-1.255027018487e-04-5.570655048359e-12 0.000000000000e+00
    3.000000000000e+00 6.812500000000e+00 4.640193282676e-09-2.662456423734e+00
    3.743916749954e-07 8.342839428224e-03 5.254521965981e-06 5.153649299622e+03
    5.255840000000e+05 1.732259988785e-07-2.195294691841e+00-3.539025783539e-08
    9.715134731500e-01 2.834062500000e+02 1.229354076378e+00-8.059264272135e-09
   -9.714690370133e-11 1.000000000000e+00 2.183000000000e+03 0.000000000000e+00
    2.400000000000e+00 0.000000000000e+00-1.257285475731e-08 3.000000000000e+00
    5.211600000000e+05 4.000000000000e+00
23 21 11 13  2 59 44.0 3.363285213709e-05-4.433786671143e-12 0.000000000000e+00
    2.210000000000e+02-4.131250000000e+01 4.479472302287e-09-1.326428053613e+00
   -2.088025212288e-06 1.880970783532e-03 4.703179001808e-06 5.153684057236e+03
    5.291840000000e+05-6.146728992462e-08 8.477596634957e-01-3.352761268616e-08
    9.661299887463e-01 2.927187500000e+02 2.787197943010e+00-8.161768541849e-09
    4.678766317969e-11 1.000000000000e+00 2.183000000000e+03 0.000000000000e+00
    2.400000000000e+00 0.000000000000e+00-8.381903171539e-09 4.770000000000e+02
    5.220000000000e+05 4.000000000000e+00
32 21 11 13  1 59 44.0-2.129701897502e-05-4.661160346586e-12 0.000000000000e+00
    1.000000000000e+00-4.928125000000e+01 4.489829876579e-09 1.627606997827e+00
   -2.555549144745e-06 5.191087257117e-03 9.754672646523e-06 5.153741802216e+03
    5.255840000000e+05-1.229345798492e-07 1.914965272184e+00 2.048909664154e-08
    9.573709232789e-01 1.870000000000e+02-2.389992329002e+00-8.033906073007e-09
   -6.321691895271e-11 1.000000000000e+00 2.183000000000e+03 0.000000000000e+00
    2.400000000000e+00 0.000000000000e+00 4.656612873077e-10 1.000000000000e+00
    5.243700000000e+05 4.000000000000e+00
12 21 11 13  3 59 44.0-1.255422830582e-04-5.570655048359e-12 0.000000000000e+00
    4.000000000000e+00 1.246875000000e+01 4.668051585943e-09-1.612341757809e+00
    8.232891559601e-07 8.343482972123e-03 5.085021257401e-06 5.153647546768e+03
    5.327840000000e+05 1.825392246246e-07-2.195352591213e+00 1.024454832077e-07
    9.715126217317e-01 2.875312500000e+02 1.229436819024e+00-8.120695402416e-09
   -1.157191058795e-10 1.000000000000e+00 2.183000000000e+03 0.000000000000e+00
    2.400000000000e+00 0.000000000000e+00-1.257285475731e-08 4.000000000000e+00
    5.256000000000e+05 4.000000000000e+00
 6 21 11 13  3 59 44.0 1.166108995676e-04 9.094947017729e-12 0.000000000000e+00
    2.000000000000e+00 4.684375000000e+01 3.970522531058e-09 1.137310579951e-01
    2.427026629448e-06 2.363949781284e-03 7.584691047668e-06 5.153613658905e+03
    5.327840000000e+05 1.862645149231e-09-1.688789851162e-01-4.656612873077e-08
    9.857753678780e-01 2.481875000000e+02-1.039682459588e+00-7.943545166255e-09
    2.200091642648e-10 1.000000000000e+00 2.183000000000e+03 0.000000000000e+00
    2.400000000000e+00 0.000000000000e+00 4.190951585770e-09 2.000000000000e+00
    5.256000000000e+05 4.000000000000e+00
 8 21 11 13  3 59 44.0-4.394678398967e-05-1.591615728103e-12 0.000000000000e+00
    3.900000000000e+01 3.250000000000e+00 4.453756945425e-09 2.055569175621e+00
    3.054738044739e-07 6.744588608854e-03 8.536502718925e-06 5.153680725098e+03
    5.327840000000e+05-3.352761268616e-08-1.238420680872e+00 1.918524503708e-07
    9.655494970007e-01 2.181562500000e+02 5.355600453684e-02-8.025334287386e-09
   -2.885834492304e-10 1.000000000000e+00 2.183000000000e+03 0.000000000000e+00
    2.400000000000e+00 0.000000000000e+00 5.122274160385e-09 3.900000000000e+01
    5.256000000000e+05 4.000000000000e+00
32 21 11 13  3 59 44.0-2.133101224899e-05-4.774847184308e-12 0.000000000000e+00
    3.000000000000e+00-5.346875000000e+01 4.343038047824e-09 2.677584551756e+00
   -2.710148692131e-06 5.190638825297e-03 9.549781680107e-06 5.153743560791e+03
    5.327840000000e+05 5.587935447693e-09 1.914907760486e+00-9.126961231232e-08
    9.573713328960e-01 1.925937500000e+02-2.389831865907e+00-7.869613515277e-09
   -3.000124967247e-11 1.000000000000e+00 2.183000000000e+03 0.000000000000e+00
    2.400000000000e+00 0.000000000000e+00 4.656612873077e-10 3.000000000000e+00
    5.256000000000e+05 4.000000000000e+00
 2 21 11 13  4  0  0.0-6.417650729418e-04-1.591615728103e-12 0.000000000000e+00
    7.000000000000e+01 4.481250000000e+01 4.540546274835e-09-6.696355949532e-02
    2.346932888031e-06 2.046454383526e-02 8.044764399529e-06 5.153794403076e+03
    5.328000000000e+05-2.998858690262e-07-2.478878785309e-01-4.842877388000e-08
    9.647895739640e-01 2.320625000000e+02-1.480596230033e+00-8.509997332690e-09
    2.203663219990e-10 1.000000000000e+00 2.183000000000e+03 0.000000000000e+00
    2.400000000000e+00 0.000000000000e+00-1.769512891769e-08 7.000000000000e+01
    5.256000000000e+05 4.000000000000e+00
 1 21 11 13  4  0  0.0 5.123503506184e-04-1.045918907039e-11 0.000000000000e+00
    6.200000000000e+01 3.862500000000e+01 4.060883437809e-09-2.780719732138e-01
    2.071261405945e-06 1.110034261364e-02 6.889924407005e-06 5.153676090240e+03
    5.328000000000e+05 3.539025783539e-08-1.606233507216e-01 1.564621925354e-07
    9.863707184825e-01 2.595312500000e+02 8.875942922764e-01-8.105694777580e-09
    1.750072897561e-10 1.000000000000e+00 2.183000000000e+03 0.000000000000e+00
    2.400000000000e+00 0.000000000000e+00 5.122274160385e-09 6.200000000000e+01
    5.256000000000e+05 4.000000000000e+00
 3 21 11 13  4  0  0.0-1.221336424351e-05-9.436007530894e-12 0.000000000000e+00
    2.500000000000e+01-4.471875000000e+01 4.504830501415e-09-1.450826455694e+00
   -2.343207597733e-06 3.870853688568e-03 4.891306161880e-06 5.153734476089e+03
    5.328000000000e+05 5.587935447693e-08 8.749222837507e-01 3.166496753693e-08
    9.712331692685e-01 2.914687500000e+02 1.004935940347e+00-8.182126532698e-09
   -7.286017777600e-11 1.000000000000e+00 2.183000000000e+03 0.000000000000e+00
    2.400000000000e+00 0.000000000000e+00 1.862645149231e-09 2.500000000000e+01
    5.256000000000e+05 4.000000000000e+00
 5 21 11 13  4  0  0.0-6.088288500905e-05-1.250555214938e-12 0.000000000000e+00
    6.700000000000e+01-3.775000000000e+01 4.825915304457e-09 2.345265953786e+00
   -2.123415470123e-06 5.995273590088e-03 3.900378942490e-06 5.153613010406e+03
    5.328000000000e+05 3.352761268616e-08 8.357857755695e-01-5.215406417847e-08
    9.582430448177e-01 3.046562500000e+02 1.017831144821e+00-8.349990667770e-09
   -4.428755904031e-11 1.000000000000e+00 2.183000000000e+03 0.000000000000e+00
    2.400000000000e+00 0.000000000000e+00-1.117587089539e-08 6.700000000000e+01
    5.256000000000e+05 4.000000000000e+00
 4 21 11 13  4  0  0.0-2.019656822085e-04 9.094947017729e-13 0.000000000000e+00
    6.900000000000e+01-5.315625000000e+01 4.339466470482e-09 1.564417323712e+00
   -2.689659595490e-06 1.519790617749e-03 1.049041748047e-05 5.153683532715e+03
    5.328000000000e+05-6.519258022308e-08 1.956338334876e+00 2.421438694000e-08
    9.605509809525e-01 1.768125000000e+02-3.128550839854e+00-7.903186342291e-09
   -9.036090675161e-11 1.000000000000e+00 2.183000000000e+03 0.000000000000e+00
    3.400000000000e+00 0.000000000000e+00-4.190951585770e-09 3.250000000000e+02
    5.256000000000e+05 4.000000000000e+00
10 21 11 13  4  0  0.0-2.449271269143e-04-8.412825991400e-12 0.000000000000e+00
    3.800000000000e+01-4.453125000000e+01 4.366967616016e-09-2.240368014172e+00
   -2.354383468628e-06 7.191690616310e-03 4.742294549942e-06 5.153676080704e+03
    5.328000000000e+05 1.303851604462e-08 8.721015275349e-01-1.024454832077e-07
    9.710811764688e-01 2.936875000000e+02-2.577125749278e+00-8.033906073007e-09
    6.643133856047e-11 1.000000000000e+00 2.183000000000e+03 0.000000000000e+00
    2.400000000000e+00 0.000000000000e+00 2.328306436539e-09 3.800000000000e+01
    5.256000000000e+05 4.000000000000e+00
25 21 11 13  4  0  0.0 2.397350035608e-04 5.911715561524e-12 0.000000000000e+00
    1.000000000000e+01 1.593750000000e+01 4.915204738007e-09-1.794243269548e+00
    8.065253496170e-07 1.001773541793e-02 4.716217517853e-06 5.153747837067e+03
    5.328000000000e+05 1.844018697739e-07-2.270952576827e+00-5.587935447693e-08
    9.589648588384e-01 2.860937500000e+02 9.627887599250e-01-8.200698734876e-09
   -1.107188976008e-11 1.000000000000e+00 2.183000000000e+03 0.000000000000e+00
    2.400000000000e+00 0.000000000000e+00 5.587935447693e-09 1.000000000000e+01
    5.256000000000e+05 4.000000000000e+00
13 21 11 13  4  0  0.0 2.137986011803e-04 5.684341886081e-12 0.000000000000e+00
    2.800000000000e+01-5.875000000000e+01 4.141243928004e-09 1.398175962338e+00
   -3.021210432053e-06 5.686056567356e-03 1.086108386517e-05 5.153686965942e+03
    5.328000000000e+05-7.450580596924e-08 2.055505069088e+00 1.862645149231e-09
    9.681348301988e-01 1.741250000000e+02 9.785320011113e-01-7.881756878239e-09
   -6.107397254753e-11 1.000000000000e+00 2.183000000000e+03 0.000000000000e+00
    2.400000000000e+00 0.000000000000e+00-1.117587089539e-08 2.800000000000e+01
    5.256000000000e+05 4.000000000000e+00
 9 21 11 13  4  0  0.0-3.617452457547e-04 2.273736754432e-13 0.000000000000e+00
    7.100000000000e+01-5.840625000000e+01 4.451971156754e-09 2.370802572780e+00
   -2.961605787277e-06 2.346591325477e-03 1.037307083607e-05 5.153681156158e+03
    5.328000000000e+05 1.117587089539e-08 1.904126857384e+00 5.960464477539e-08
    9.534699483533e-01 1.733750000000e+02 1.829829949956e+00-7.964617472573e-09
   -8.928943354902e-11 1.000000000000e+00 2.183000000000e+03 0.000000000000e+00
    2.400000000000e+00 0.000000000000e+00 1.396983861923e-09 7.100000000000e+01
    5.256000000000e+05 4.000000000000e+00
